0 COSMOS 2140 (GLONASS)
1 21217U 91025B   13280.44263439  .00000066  00000-0  00000+0 0   654
2 21217 064.0976 105.1619 0022292 219.7096 242.0020 02.13101105175211
0 COSMOS 2140 (GLONASS)
1 21217U 91025B   13282.66871591  .00000065  00000-0  00000+0 0   664
2 21217 064.0984 105.0842 0022282 219.7128 149.7668 02.13101172175262
0 COSMOS 2140 (GLONASS)
1 21217U 91025B   13285.96915925  .00000082  00000-0  00000+0 0   670
2 21217 064.0994 104.9692 0022274 219.7552 161.7039 02.13101289175339
0 COSMOS 2140 (GLONASS)
1 21217U 91025B   13289.23239932  .00000072  00000-0  00000+0 0   681
2 21217 064.1004 104.8555 0022217 219.9213 144.9780 02.13101352175407
0 COSMOS 2140 (GLONASS)
1 21217U 91025B   13291.74260664  .00000041  00000-0  00000+0 0   693
2 21217 064.1010 104.7679 0022188 219.9301 270.7116 02.13101369175459
0 COSMOS 2140 (GLONASS)
1 21217U 91025B   13294.35267133  .00000027  00000-0  00000+0 0   707
2 21217 064.1020 104.6771 0022282 219.8360 113.1565 02.13101347175501
